<?xml version="1.0" encoding="UTF-8"?>
<kml xmlns="http://www.opengis.net/kml/2.2" xmlns:gx="http://www.google.com/kml/ext/2.2" xmlns:kml="http://www.opengis.net/kml/2.2" xmlns:atom="http://www.w3.org/2005/Atom">
<Document id="1Qix_jyF520N9jpeJPjuPuEfDZVWwrG9I">
	<name>Co-GLANCE</name>
	<StyleMap id="__managed_style_0226E7D8C93F72B4174C">
		<Pair>
			<key>normal</key>
			<styleUrl>#__managed_style_1846081EDF3F72B4174C</styleUrl>
		</Pair>
		<Pair>
			<key>highlight</key>
			<styleUrl>#__managed_style_2ABEADF20E3F72B4174C</styleUrl>
		</Pair>
	</StyleMap>
	<gx:CascadingStyle kml:id="__managed_style_1846081EDF3F72B4174C">
		<Style>
			<IconStyle>
				<Icon>
					<href>https://earth.google.com/earth/document/icon?color=757575&amp;id=2000&amp;scale=4</href>
				</Icon>
				<hotSpot x="64" y="128" xunits="pixels" yunits="insetPixels"/>
			</IconStyle>
			<LabelStyle>
			</LabelStyle>
			<LineStyle>
				<color>ff2dc0fb</color>
				<width>4</width>
			</LineStyle>
			<PolyStyle>
				<color>40ffffff</color>
			</PolyStyle>
			<BalloonStyle>
			</BalloonStyle>
		</Style>
	</gx:CascadingStyle>
	<gx:CascadingStyle kml:id="__managed_style_2ABEADF20E3F72B4174C">
		<Style>
			<IconStyle>
				<scale>1.2</scale>
				<Icon>
					<href>https://earth.google.com/earth/document/icon?color=757575&amp;id=2000&amp;scale=4</href>
				</Icon>
				<hotSpot x="64" y="128" xunits="pixels" yunits="insetPixels"/>
			</IconStyle>
			<LabelStyle>
			</LabelStyle>
			<LineStyle>
				<color>ff2dc0fb</color>
				<width>6</width>
			</LineStyle>
			<PolyStyle>
				<color>40ffffff</color>
			</PolyStyle>
			<BalloonStyle>
			</BalloonStyle>
		</Style>
	</gx:CascadingStyle>
	<StyleMap id="__managed_style_0A06ADA93A3F72B41744">
		<Pair>
			<key>normal</key>
			<styleUrl>#__managed_style_1A728854C93F72B41744</styleUrl>
		</Pair>
		<Pair>
			<key>highlight</key>
			<styleUrl>#__managed_style_0247208B353F72B41748</styleUrl>
		</Pair>
	</StyleMap>
	<gx:CascadingStyle kml:id="__managed_style_39E1636A753F72B4174B">
		<Style>
			<IconStyle>
				<scale>1.2</scale>
				<Icon>
					<href>https://earth.google.com/earth/document/icon?color=00796b&amp;id=2000&amp;scale=4</href>
				</Icon>
				<hotSpot x="64" y="128" xunits="pixels" yunits="insetPixels"/>
			</IconStyle>
			<LabelStyle>
			</LabelStyle>
			<LineStyle>
				<color>ff2dc0fb</color>
				<width>6</width>
			</LineStyle>
			<PolyStyle>
				<color>40ffffff</color>
			</PolyStyle>
			<BalloonStyle>
			</BalloonStyle>
		</Style>
	</gx:CascadingStyle>
	<gx:CascadingStyle kml:id="__managed_style_24552C6C693F72B4174B">
		<Style>
			<IconStyle>
				<Icon>
					<href>https://earth.google.com/earth/document/icon?color=00796b&amp;id=2000&amp;scale=4</href>
				</Icon>
				<hotSpot x="64" y="128" xunits="pixels" yunits="insetPixels"/>
			</IconStyle>
			<LabelStyle>
			</LabelStyle>
			<LineStyle>
				<color>ff2dc0fb</color>
				<width>4</width>
			</LineStyle>
			<PolyStyle>
				<color>40ffffff</color>
			</PolyStyle>
			<BalloonStyle>
			</BalloonStyle>
		</Style>
	</gx:CascadingStyle>
	<StyleMap id="__managed_style_1A499722183F72B4174B">
		<Pair>
			<key>normal</key>
			<styleUrl>#__managed_style_24552C6C693F72B4174B</styleUrl>
		</Pair>
		<Pair>
			<key>highlight</key>
			<styleUrl>#__managed_style_39E1636A753F72B4174B</styleUrl>
		</Pair>
	</StyleMap>
	<gx:CascadingStyle kml:id="__managed_style_0B6CEDB8613F72B4174B">
		<Style>
			<IconStyle>
				<scale>1.2</scale>
				<Icon>
					<href>https://earth.google.com/earth/document/icon?color=f57c00&amp;id=2000&amp;scale=4</href>
				</Icon>
				<hotSpot x="64" y="128" xunits="pixels" yunits="insetPixels"/>
			</IconStyle>
			<LabelStyle>
			</LabelStyle>
			<LineStyle>
				<color>ff2dc0fb</color>
				<width>6</width>
			</LineStyle>
			<PolyStyle>
				<color>40ffffff</color>
			</PolyStyle>
			<BalloonStyle>
			</BalloonStyle>
		</Style>
	</gx:CascadingStyle>
	<gx:CascadingStyle kml:id="__managed_style_1A441A18F23F72B41749">
		<Style>
			<IconStyle>
				<Icon>
					<href>https://earth.google.com/earth/document/icon?color=f57c00&amp;id=2000&amp;scale=4</href>
				</Icon>
				<hotSpot x="64" y="128" xunits="pixels" yunits="insetPixels"/>
			</IconStyle>
			<LabelStyle>
			</LabelStyle>
			<LineStyle>
				<color>ff2dc0fb</color>
				<width>4</width>
			</LineStyle>
			<PolyStyle>
				<color>40ffffff</color>
			</PolyStyle>
			<BalloonStyle>
			</BalloonStyle>
		</Style>
	</gx:CascadingStyle>
	<StyleMap id="__managed_style_014F80B5523F72B41749">
		<Pair>
			<key>normal</key>
			<styleUrl>#__managed_style_1A441A18F23F72B41749</styleUrl>
		</Pair>
		<Pair>
			<key>highlight</key>
			<styleUrl>#__managed_style_0B6CEDB8613F72B4174B</styleUrl>
		</Pair>
	</StyleMap>
	<gx:CascadingStyle kml:id="__managed_style_0247208B353F72B41748">
		<Style>
			<IconStyle>
				<scale>1.2</scale>
				<Icon>
					<href>https://earth.google.com/earth/document/icon?color=1976d2&amp;id=2000&amp;scale=4</href>
				</Icon>
				<hotSpot x="64" y="128" xunits="pixels" yunits="insetPixels"/>
			</IconStyle>
			<LabelStyle>
			</LabelStyle>
			<LineStyle>
				<color>ff2dc0fb</color>
				<width>6</width>
			</LineStyle>
			<PolyStyle>
				<color>40ffffff</color>
			</PolyStyle>
			<BalloonStyle>
			</BalloonStyle>
		</Style>
	</gx:CascadingStyle>
	<gx:CascadingStyle kml:id="__managed_style_1A728854C93F72B41744">
		<Style>
			<IconStyle>
				<Icon>
					<href>https://earth.google.com/earth/document/icon?color=1976d2&amp;id=2000&amp;scale=4</href>
				</Icon>
				<hotSpot x="64" y="128" xunits="pixels" yunits="insetPixels"/>
			</IconStyle>
			<LabelStyle>
			</LabelStyle>
			<LineStyle>
				<color>ff2dc0fb</color>
				<width>4</width>
			</LineStyle>
			<PolyStyle>
				<color>40ffffff</color>
			</PolyStyle>
			<BalloonStyle>
			</BalloonStyle>
		</Style>
	</gx:CascadingStyle>
	<Placemark id="080C3B59D73F4DCB2C26">
		<name>Either</name>
		<LookAt>
			<longitude>-97.72895655649063</longitude>
			<latitude>30.38841780792508</latitude>
			<altitude>236.186394082869</altitude>
			<heading>109.1382439611576</heading>
			<tilt>0.5669864395320903</tilt>
			<gx:fovy>35</gx:fovy>
			<range>31.10827853270166</range>
			<altitudeMode>absolute</altitudeMode>
		</LookAt>
		<styleUrl>#__managed_style_0A06ADA93A3F72B41744</styleUrl>
		<Point>
			<coordinates>-97.7289495690986,30.38844892316109,236.3458562027105</coordinates>
		</Point>
	</Placemark>
	<Placemark id="08801F2D963F4DCC0EEC">
		<name>Both</name>
		<LookAt>
			<longitude>-97.72893346214958</longitude>
			<latitude>30.38829062664844</latitude>
			<altitude>236.0222024072325</altitude>
			<heading>109.0039692426415</heading>
			<tilt>1.868649561022969</tilt>
			<gx:fovy>35</gx:fovy>
			<range>85.58065497842108</range>
			<altitudeMode>absolute</altitudeMode>
		</LookAt>
		<styleUrl>#__managed_style_014F80B5523F72B41749</styleUrl>
		<Point>
			<coordinates>-97.72891202816622,30.38836878966738,236.1306210703902</coordinates>
		</Point>
	</Placemark>
	<Placemark id="00627756703F4DCC9779">
		<name>Ground</name>
		<LookAt>
			<longitude>-97.72895113718069</longitude>
			<latitude>30.38824778770855</latitude>
			<altitude>236.1002386865424</altitude>
			<heading>109.3047024723686</heading>
			<tilt>0</tilt>
			<gx:fovy>35</gx:fovy>
			<range>61.10257210737474</range>
			<altitudeMode>absolute</altitudeMode>
		</LookAt>
		<styleUrl>#__managed_style_1A499722183F72B4174B</styleUrl>
		<Point>
			<coordinates>-97.7288814327971,30.38829255288783,236.7146688131963</coordinates>
		</Point>
	</Placemark>
	<Placemark id="0653EA787D3F4DCCB90C">
		<name>Either</name>
		<LookAt>
			<longitude>-97.72895113718069</longitude>
			<latitude>30.38824778770855</latitude>
			<altitude>236.1002386865424</altitude>
			<heading>109.3047024723686</heading>
			<tilt>0</tilt>
			<gx:fovy>35</gx:fovy>
			<range>61.10257210737474</range>
			<altitudeMode>absolute</altitudeMode>
		</LookAt>
		<styleUrl>#__managed_style_0A06ADA93A3F72B41744</styleUrl>
		<Point>
			<coordinates>-97.72888800371966,30.38822507238957,237.0193144944913</coordinates>
		</Point>
	</Placemark>
	<Placemark id="02BB5F86223F4DCD08BC">
		<name>Ground</name>
		<LookAt>
			<longitude>-97.72895555232789</longitude>
			<latitude>30.38822659271833</latitude>
			<altitude>236.1277912190512</altitude>
			<heading>109.3047002389695</heading>
			<tilt>0</tilt>
			<gx:fovy>35</gx:fovy>
			<range>61.07501973613581</range>
			<altitudeMode>absolute</altitudeMode>
		</LookAt>
		<styleUrl>#__managed_style_1A499722183F72B4174B</styleUrl>
		<Point>
			<coordinates>-97.72891777024662,30.3881325667238,236.9900755553827</coordinates>
		</Point>
	</Placemark>
	<Placemark id="07FA6B92613F4DCD24C4">
		<name>Ground</name>
		<LookAt>
			<longitude>-97.72895555232789</longitude>
			<latitude>30.38822659271833</latitude>
			<altitude>236.1277912190512</altitude>
			<heading>109.3047002389695</heading>
			<tilt>0</tilt>
			<gx:fovy>35</gx:fovy>
			<range>61.07501973613581</range>
			<altitudeMode>absolute</altitudeMode>
		</LookAt>
		<styleUrl>#__managed_style_1A499722183F72B4174B</styleUrl>
		<Point>
			<coordinates>-97.72894651659537,30.38805788417088,237.0454451384312</coordinates>
		</Point>
	</Placemark>
	<Placemark id="010A7BF2DC3F4DCE97E7">
		<name>Both</name>
		<LookAt>
			<longitude>-97.72896397081594</longitude>
			<latitude>30.38825512362795</latitude>
			<altitude>236.0803977108467</altitude>
			<heading>109.7016167061048</heading>
			<tilt>5.242391294205331</tilt>
			<gx:fovy>35</gx:fovy>
			<range>72.91682029623189</range>
			<altitudeMode>absolute</altitudeMode>
		</LookAt>
		<styleUrl>#__managed_style_014F80B5523F72B41749</styleUrl>
		<Point>
			<coordinates>-97.72898094572642,30.38840973970319,236.1669336475925</coordinates>
		</Point>
	</Placemark>
	<Placemark id="03CDBEE55D3F4DCEF4C4">
		<name>Both</name>
		<LookAt>
			<longitude>-97.72896397081594</longitude>
			<latitude>30.38825512362795</latitude>
			<altitude>236.0803977108467</altitude>
			<heading>109.7016167061048</heading>
			<tilt>5.242391294205331</tilt>
			<gx:fovy>35</gx:fovy>
			<range>72.91682029623189</range>
			<altitudeMode>absolute</altitudeMode>
		</LookAt>
		<styleUrl>#__managed_style_014F80B5523F72B41749</styleUrl>
		<Point>
			<coordinates>-97.72891778216817,30.38829372169227,236.0896811994965</coordinates>
		</Point>
	</Placemark>
	<Placemark id="088B739F663F4DD03059">
		<name>Both</name>
		<LookAt>
			<longitude>-97.72890452720951</longitude>
			<latitude>30.38821874054924</latitude>
			<altitude>244.9507252203059</altitude>
			<heading>62.62043229467843</heading>
			<tilt>63.65571718597598</tilt>
			<gx:fovy>35</gx:fovy>
			<range>78.33095685227819</range>
			<altitudeMode>absolute</altitudeMode>
		</LookAt>
		<styleUrl>#__managed_style_014F80B5523F72B41749</styleUrl>
		<Point>
			<coordinates>-97.7289292252874,30.38819835851541,237.5386850373559</coordinates>
		</Point>
	</Placemark>
	<Placemark id="0CAE94536F3F4DD2BD49">
		<name>Area of interest</name>
		<LookAt>
			<longitude>-97.7290900655438</longitude>
			<latitude>30.38826535471341</latitude>
			<altitude>237.0990586066654</altitude>
			<heading>-107.2258474200504</heading>
			<tilt>58.92597206302545</tilt>
			<gx:fovy>35</gx:fovy>
			<range>126.3656160102255</range>
			<altitudeMode>absolute</altitudeMode>
		</LookAt>
		<styleUrl>#__managed_style_0A06ADA93A3F72B41744</styleUrl>
		<Polygon>
			<outerBoundaryIs>
				<LinearRing>
					<coordinates>
						-97.72868192892965,30.3885041291053,0 -97.72897439898185,30.3885923258858,0 -97.72919854385353,30.38805620482731,0 -97.72890289680565,30.38796912444613,0 -97.72868192892965,30.3885041291053,0 
					</coordinates>
				</LinearRing>
			</outerBoundaryIs>
		</Polygon>
	</Placemark>
	<Placemark id="012D910FA93F4DF54BB3">
		<name>Start 1 - Ground</name>
		<LookAt>
			<longitude>-97.72901234003754</longitude>
			<latitude>30.38823065269922</latitude>
			<altitude>237.3334264893511</altitude>
			<heading>109.5618465097331</heading>
			<tilt>41.35456924051942</tilt>
			<gx:fovy>30</gx:fovy>
			<range>62.0797396963826</range>
			<altitudeMode>absolute</altitudeMode>
		</LookAt>
		<styleUrl>#__managed_style_0226E7D8C93F72B4174C</styleUrl>
		<Point>
			<coordinates>-97.72910037751865,30.38824872848898,237.1422580996899</coordinates>
		</Point>
	</Placemark>
	<Placemark id="03399EF17A3F4DF5C590">
		<name>Start 1 - Air</name>
		<LookAt>
			<longitude>-97.72901234003754</longitude>
			<latitude>30.38823065269922</latitude>
			<altitude>237.3334264893511</altitude>
			<heading>109.5618465097331</heading>
			<tilt>41.35456924051942</tilt>
			<gx:fovy>30</gx:fovy>
			<range>62.0797396963826</range>
			<altitudeMode>absolute</altitudeMode>
		</LookAt>
		<styleUrl>#__managed_style_0226E7D8C93F72B4174C</styleUrl>
		<Point>
			<coordinates>-97.72908957795123,30.38827712990098,237.176032851422</coordinates>
		</Point>
	</Placemark>
	<Placemark id="0A6D9B4C203F4DF70A8C">
		<name>Start 2 - Ground </name>
		<LookAt>
			<longitude>-97.72896997430388</longitude>
			<latitude>30.38837256015251</latitude>
			<altitude>237.3465434077921</altitude>
			<heading>127.1905764023096</heading>
			<tilt>36.56304404292236</tilt>
			<gx:fovy>30</gx:fovy>
			<range>74.83320215529602</range>
			<altitudeMode>absolute</altitudeMode>
		</LookAt>
		<styleUrl>#__managed_style_0226E7D8C93F72B4174C</styleUrl>
		<Point>
			<coordinates>-97.72888699115494,30.38854712908329,238.567979811234</coordinates>
		</Point>
	</Placemark>
	<Placemark id="08C909AFDC3F4DF72FB9">
		<name>Start 2 - Air</name>
		<LookAt>
			<longitude>-97.72896997430388</longitude>
			<latitude>30.38837256015251</latitude>
			<altitude>237.3465434077921</altitude>
			<heading>127.1905764023096</heading>
			<tilt>36.56304404292236</tilt>
			<gx:fovy>30</gx:fovy>
			<range>74.83320215529602</range>
			<altitudeMode>absolute</altitudeMode>
		</LookAt>
		<styleUrl>#__managed_style_0226E7D8C93F72B4174C</styleUrl>
		<Point>
			<coordinates>-97.72883991012773,30.38853419613477,238.6968131550868</coordinates>
		</Point>
	</Placemark>
	<Placemark id="07F275BEB43F4DF762F0">
		<name>Start 3 - Ground</name>
		<LookAt>
			<longitude>-97.72886921127872</longitude>
			<latitude>30.38827183692468</latitude>
			<altitude>238.2436980179658</altitude>
			<heading>122.8177668576469</heading>
			<tilt>21.6076504703759</tilt>
			<gx:fovy>30</gx:fovy>
			<range>78.20320771900698</range>
			<altitudeMode>absolute</altitudeMode>
		</LookAt>
		<styleUrl>#__managed_style_0226E7D8C93F72B4174C</styleUrl>
		<Point>
			<coordinates>-97.72882935613092,30.38823058707296,238.8255068703134</coordinates>
		</Point>
	</Placemark>
	<Placemark id="0D965E19563F6D55D6CB">
		<name>Ground</name>
		<LookAt>
			<longitude>-97.72891095513106</longitude>
			<latitude>30.38816985584587</latitude>
			<altitude>237.6314690219754</altitude>
			<heading>97.35540544446106</heading>
			<tilt>19.03646273332665</tilt>
			<gx:fovy>35</gx:fovy>
			<range>45.83470806231617</range>
			<altitudeMode>absolute</altitudeMode>
		</LookAt>
		<styleUrl>#__managed_style_1A499722183F72B4174B</styleUrl>
		<Point>
			<coordinates>-97.72889981542271,30.38813174489758,238.5097584186741</coordinates>
		</Point>
	</Placemark>
</Document>
</kml>
